sat23260
1 23260U 90081CR  20046.53248956  .00001101  00000-0  20452-3 0  9994
2 23260  98.0085  66.2201 0015263  58.3764  93.7092 14.67023235500448
